[{"OBJECT_NAME":"ONEWEB-0124","OBJECT_ID":"2020-100N","EPOCH":"2025-09-07T03:04:04.988064","MEAN_MOTION":13.12441065,"ECCENTRICITY":0.00017279,"INCLINATION":87.8891,"RA_OF_ASC_NODE":46.9262,"ARG_OF_PERICENTER":87.5574,"MEAN_ANOMALY":272.5753,"EPHEMERIS_TYPE":0,"CLASSIFICATION_TYPE":"U","NORAD_CAT_ID":47270,"ELEMENT_SET_NO":999,"REV_AT_EPOCH":22744,"BSTAR":0.0009819954,"MEAN_MOTION_DOT":3.66e-6,"MEAN_MOTION_DDOT":0},{"OBJECT_NAME":"ONEWEB-0125","OBJECT_ID":"2020-100P","EPOCH":"2025-09-07T04:21:09.132480","MEAN_MOTION":13.1244353,"ECCENTRICITY":0.00019354,"INCLINATION":87.889,"RA_OF_ASC_NODE":46.8784,"ARG_OF_PERICENTER":91.1137,"MEAN_ANOMALY":269.0214,"EPHEMERIS_TYPE":0,"CLASSIFICATION_TYPE":"U","NORAD_CAT_ID":47271,"ELEMENT_SET_NO":999,"REV_AT_EPOCH":22751,"BSTAR":0.00052712879,"MEAN_MOTION_DOT":2.02e-6,"MEAN_MOTION_DDOT":0},{"OBJECT_NAME":"ONEWEB-0126","OBJECT_ID":"2020-100Q","EPOCH":"2025-09-07T04:51:42.418656","MEAN_MOTION":13.12440799,"ECCENTRICITY":0.00016757,"INCLINATION":87.8898,"RA_OF_ASC_NODE":46.8951,"ARG_OF_PERICENTER":96.4115,"MEAN_ANOMALY":263.7204,"EPHEMERIS_TYPE":0,"CLASSIFICATION_TYPE":"U","NORAD_CAT_ID":47272,"ELEMENT_SET_NO":999,"REV_AT_EPOCH":22758,"BSTAR":0.00083865758,"MEAN_MOTION_DOT":3.14e-6,"MEAN_MOTION_DDOT":0},{"OBJECT_NAME":"ONEWEB-0127","OBJECT_ID":"2020-100R","EPOCH":"2025-09-07T04:02:27.527424","MEAN_MOTION":13.12443064,"ECCENTRICITY":0.00015747,"INCLINATION":87.8893,"RA_OF_ASC_NODE":46.9149,"ARG_OF_PERICENTER":97.8537,"MEAN_ANOMALY":262.2771,"EPHEMERIS_TYPE":0,"CLASSIFICATION_TYPE":"U","NORAD_CAT_ID":47273,"ELEMENT_SET_NO":999,"REV_AT_EPOCH":22760,"BSTAR":-0.00061251013,"MEAN_MOTION_DOT":-2.08e-6,"MEAN_MOTION_DDOT":0},{"OBJECT_NAME":"ONEWEB-0128","OBJECT_ID":"2020-100S","EPOCH":"2025-09-07T04:35:10.300416","MEAN_MOTION":13.12443464,"ECCENTRICITY":0.0001431,"INCLINATION":87.8884,"RA_OF_ASC_NODE":46.9347,"ARG_OF_PERICENTER":91.2748,"MEAN_ANOMALY":268.8544,"EPHEMERIS_TYPE":0,"CLASSIFICATION_TYPE":"U","NORAD_CAT_ID":47274,"ELEMENT_SET_NO":999,"REV_AT_EPOCH":22762,"BSTAR":0.00091095991,"MEAN_MOTION_DOT":3.4e-6,"MEAN_MOTION_DDOT":0},{"OBJECT_NAME":"ONEWEB-0129","OBJECT_ID":"2020-100T","EPOCH":"2025-09-07T04:04:47.881632","MEAN_MOTION":13.12444023,"ECCENTRICITY":0.00017086,"INCLINATION":87.8892,"RA_OF_ASC_NODE":46.8831,"ARG_OF_PERICENTER":135.4549,"MEAN_ANOMALY":224.6717,"EPHEMERIS_TYPE":0,"CLASSIFICATION_TYPE":"U","NORAD_CAT_ID":47275,"ELEMENT_SET_NO":999,"REV_AT_EPOCH":22755,"BSTAR":-0.00050336467,"MEAN_MOTION_DOT":-1.68e-6,"MEAN_MOTION_DDOT":0},{"OBJECT_NAME":"ONEWEB-0130","OBJECT_ID":"2020-100U","EPOCH":"2025-09-07T04:44:30.925824","MEAN_MOTION":13.12443167,"ECCENTRICITY":0.0001571,"INCLINATION":87.8886,"RA_OF_ASC_NODE":46.8749,"ARG_OF_PERICENTER":94.0756,"MEAN_ANOMALY":266.0552,"EPHEMERIS_TYPE":0,"CLASSIFICATION_TYPE":"U","NORAD_CAT_ID":47276,"ELEMENT_SET_NO":999,"REV_AT_EPOCH":22752,"BSTAR":0.001058975,"MEAN_MOTION_DOT":3.94e-6,"MEAN_MOTION_DDOT":0},{"OBJECT_NAME":"ONEWEB-0131","OBJECT_ID":"2020-100V","EPOCH":"2025-09-07T04:39:51.521184","MEAN_MOTION":13.12442942,"ECCENTRICITY":0.00016173,"INCLINATION":87.889,"RA_OF_ASC_NODE":46.9051,"ARG_OF_PERICENTER":92.8666,"MEAN_ANOMALY":267.2648,"EPHEMERIS_TYPE":0,"CLASSIFICATION_TYPE":"U","NORAD_CAT_ID":47277,"ELEMENT_SET_NO":999,"REV_AT_EPOCH":22756,"BSTAR":0.0009891637,"MEAN_MOTION_DOT":3.69e-6,"MEAN_MOTION_DDOT":0},{"OBJECT_NAME":"ONEWEB-0132","OBJECT_ID":"2020-100W","EPOCH":"2025-09-07T03:32:06.073728","MEAN_MOTION":13.12442525,"ECCENTRICITY":0.00017883,"INCLINATION":87.8889,"RA_OF_ASC_NODE":46.9163,"ARG_OF_PERICENTER":87.3911,"MEAN_ANOMALY":272.7422,"EPHEMERIS_TYPE":0,"CLASSIFICATION_TYPE":"U","NORAD_CAT_ID":47278,"ELEMENT_SET_NO":999,"REV_AT_EPOCH":22745,"BSTAR":-0.00080048042,"MEAN_MOTION_DOT":-2.75e-6,"MEAN_MOTION_DDOT":0},{"OBJECT_NAME":"ONEWEB-0133","OBJECT_ID":"2020-100X","EPOCH":"2025-09-07T03:55:14.503584","MEAN_MOTION":13.12443986,"ECCENTRICITY":0.00015857,"INCLINATION":87.8877,"RA_OF_ASC_NODE":46.8837,"ARG_OF_PERICENTER":89.9884,"MEAN_ANOMALY":270.1426,"EPHEMERIS_TYPE":0,"CLASSIFICATION_TYPE":"U","NORAD_CAT_ID":47279,"ELEMENT_SET_NO":999,"REV_AT_EPOCH":22761,"BSTAR":-0.0011924727,"MEAN_MOTION_DOT":-4.16e-6,"MEAN_MOTION_DDOT":0},{"OBJECT_NAME":"ONEWEB-0134","OBJECT_ID":"2020-100Y","EPOCH":"2025-09-07T03:11:05.087328","MEAN_MOTION":13.12441884,"ECCENTRICITY":0.00014183,"INCLINATION":87.8889,"RA_OF_ASC_NODE":46.876,"ARG_OF_PERICENTER":95.2347,"MEAN_ANOMALY":264.8944,"EPHEMERIS_TYPE":0,"CLASSIFICATION_TYPE":"U","NORAD_CAT_ID":47280,"ELEMENT_SET_NO":999,"REV_AT_EPOCH":22758,"BSTAR":0.00061990145,"MEAN_MOTION_DOT":2.36e-6,"MEAN_MOTION_DDOT":0},{"OBJECT_NAME":"ONEWEB-0135","OBJECT_ID":"2020-100Z","EPOCH":"2025-09-07T04:18:49.001184","MEAN_MOTION":13.12442494,"ECCENTRICITY":0.00012301,"INCLINATION":87.8892,"RA_OF_ASC_NODE":46.907,"ARG_OF_PERICENTER":89.8805,"MEAN_ANOMALY":270.2464,"EPHEMERIS_TYPE":0,"CLASSIFICATION_TYPE":"U","NORAD_CAT_ID":47281,"ELEMENT_SET_NO":999,"REV_AT_EPOCH":22761,"BSTAR":0.00038258342,"MEAN_MOTION_DOT":1.5e-6,"MEAN_MOTION_DDOT":0},{"OBJECT_NAME":"ONEWEB-0136","OBJECT_ID":"2020-100AA","EPOCH":"2025-09-07T04:46:50.874816","MEAN_MOTION":13.12442233,"ECCENTRICITY":0.00012922,"INCLINATION":87.8889,"RA_OF_ASC_NODE":46.8716,"ARG_OF_PERICENTER":101.8221,"MEAN_ANOMALY":258.3053,"EPHEMERIS_TYPE":0,"CLASSIFICATION_TYPE":"U","NORAD_CAT_ID":47282,"ELEMENT_SET_NO":999,"REV_AT_EPOCH":22754,"BSTAR":0.0010244456,"MEAN_MOTION_DOT":3.81e-6,"MEAN_MOTION_DDOT":0},{"OBJECT_NAME":"ONEWEB-0137","OBJECT_ID":"2020-100AB","EPOCH":"2025-09-07T03:46:06.540960","MEAN_MOTION":13.12442802,"ECCENTRICITY":0.00018414,"INCLINATION":87.889,"RA_OF_ASC_NODE":46.886,"ARG_OF_PERICENTER":98.3302,"MEAN_ANOMALY":261.8036,"EPHEMERIS_TYPE":0,"CLASSIFICATION_TYPE":"U","NORAD_CAT_ID":47283,"ELEMENT_SET_NO":999,"REV_AT_EPOCH":22744,"BSTAR":-0.0011143453,"MEAN_MOTION_DOT":-3.88e-6,"MEAN_MOTION_DDOT":0},{"OBJECT_NAME":"ONEWEB-0138","OBJECT_ID":"2020-100AC","EPOCH":"2025-09-07T03:15:45.415584","MEAN_MOTION":13.12441274,"ECCENTRICITY":0.00015731,"INCLINATION":87.8888,"RA_OF_ASC_NODE":46.9,"ARG_OF_PERICENTER":95.802,"MEAN_ANOMALY":264.3288,"EPHEMERIS_TYPE":0,"CLASSIFICATION_TYPE":"U","NORAD_CAT_ID":47284,"ELEMENT_SET_NO":999,"REV_AT_EPOCH":22752,"BSTAR":0.0002983394,"MEAN_MOTION_DOT":1.2e-6,"MEAN_MOTION_DDOT":0},{"OBJECT_NAME":"ONEWEB-0139","OBJECT_ID":"2020-100AD","EPOCH":"2025-09-07T04:12:01.754784","MEAN_MOTION":13.12443357,"ECCENTRICITY":0.00016552,"INCLINATION":87.8884,"RA_OF_ASC_NODE":46.8838,"ARG_OF_PERICENTER":94.1445,"MEAN_ANOMALY":265.9872,"EPHEMERIS_TYPE":0,"CLASSIFICATION_TYPE":"U","NORAD_CAT_ID":47285,"ELEMENT_SET_NO":999,"REV_AT_EPOCH":22760,"BSTAR":5.1817158e-5,"MEAN_MOTION_DOT":3.1e-7,"MEAN_MOTION_DDOT":0},{"OBJECT_NAME":"ONEWEB-0140","OBJECT_ID":"2020-100AE","EPOCH":"2025-09-07T03:06:25.073568","MEAN_MOTION":13.12441479,"ECCENTRICITY":0.00015677,"INCLINATION":87.8886,"RA_OF_ASC_NODE":46.8769,"ARG_OF_PERICENTER":95.0072,"MEAN_ANOMALY":265.1236,"EPHEMERIS_TYPE":0,"CLASSIFICATION_TYPE":"U","NORAD_CAT_ID":47286,"ELEMENT_SET_NO":999,"REV_AT_EPOCH":22756,"BSTAR":0.00077311882,"MEAN_MOTION_DOT":2.91e-6,"MEAN_MOTION_DDOT":0}]
