ONEWEB-0124             
1 47270U 20100N   25250.12783551  .00000366  00000+0  98200-3 0  9995
2 47270  87.8891  46.9262 0001727  87.5574 272.5753 13.12441065227442
ONEWEB-0125             
1 47271U 20100P   25250.18135570  .00000202  00000+0  52713-3 0  9992
2 47271  87.8890  46.8784 0001935  91.1137 269.0214 13.12443530227517
ONEWEB-0126             
1 47272U 20100Q   25250.20257429  .00000314  00000+0  83866-3 0  9991
2 47272  87.8898  46.8951 0001675  96.4115 263.7204 13.12440799227588
ONEWEB-0127             
1 47273U 20100R   25250.16837416 -.00000208  00000+0 -61251-3 0  9995
2 47273  87.8893  46.9149 0001574  97.8537 262.2771 13.12443064227609
ONEWEB-0128             
1 47274U 20100S   25250.19109144  .00000340  00000+0  91096-3 0  9994
2 47274  87.8884  46.9347 0001431  91.2748 268.8544 13.12443464227620
ONEWEB-0129             
1 47275U 20100T   25250.16999863 -.00000168  00000+0 -50336-3 0  9999
2 47275  87.8892  46.8831 0001708 135.4549 224.6717 13.12444023227550
ONEWEB-0130             
1 47276U 20100U   25250.19758016  .00000394  00000+0  10590-2 0  9992
2 47276  87.8886  46.8749 0001571  94.0756 266.0552 13.12443167227522
ONEWEB-0131             
1 47277U 20100V   25250.19434631  .00000369  00000+0  98916-3 0  9998
2 47277  87.8890  46.9051 0001617  92.8666 267.2648 13.12442942227565
ONEWEB-0132             
1 47278U 20100W   25250.14729252 -.00000275  00000+0 -80048-3 0  9995
2 47278  87.8889  46.9163 0001788  87.3911 272.7422 13.12442525227455
ONEWEB-0133             
1 47279U 20100X   25250.16336231 -.00000416  00000+0 -11925-2 0  9993
2 47279  87.8877  46.8837 0001585  89.9884 270.1426 13.12443986227618
ONEWEB-0134             
1 47280U 20100Y   25250.13269777  .00000236  00000+0  61990-3 0  9998
2 47280  87.8889  46.8760 0001418  95.2347 264.8944 13.12441884227583
ONEWEB-0135             
1 47281U 20100Z   25250.17973381  .00000150  00000+0  38258-3 0  9992
2 47281  87.8892  46.9070 0001230  89.8805 270.2464 13.12442494227613
ONEWEB-0136             
1 47282U 20100AA  25250.19919994  .00000381  00000+0  10244-2 0  9995
2 47282  87.8889  46.8716 0001292 101.8221 258.3053 13.12442233227545
ONEWEB-0137             
1 47283U 20100AB  25250.15702015 -.00000388  00000+0 -11143-2 0  9994
2 47283  87.8890  46.8860 0001841  98.3302 261.8036 13.12442802227449
ONEWEB-0138             
1 47284U 20100AC  25250.13594231  .00000120  00000+0  29834-3 0  9991
2 47284  87.8888  46.9000 0001573  95.8020 264.3288 13.12441274227523
ONEWEB-0139             
1 47285U 20100AD  25250.17502031  .00000031  00000+0  51817-4 0  9991
2 47285  87.8884  46.8838 0001655  94.1445 265.9872 13.12443357227601
ONEWEB-0140             
1 47286U 20100AE  25250.12945687  .00000291  00000+0  77312-3 0  9990
2 47286  87.8886  46.8769 0001567  95.0072 265.1236 13.12441479227569
